{
  "type": "FeatureCollection",
  "features": [
    {
      "type": "Feature",
      "properties": {
        "norad_id": 26766,
        "name": "INTELSAT 10 (IS-10)",
        "group": "intelsat",
        "lat": -8.306875101030666,
        "lon": -44.835898386269605,
        "alt_km": 36096.47150030036,
        "timestamp": "2025-12-10T05:46:13.464963+00:00",
        "meta_object_name": "INTELSAT 10 (IS-10)",
        "meta_object_id": "2001-019A",
        "meta_epoch": "2025-12-09T15:29:15.575424",
        "meta_mean_motion": 0.99078983,
        "meta_eccentricity": 0.0007832,
        "meta_inclination": 8.6227,
        "meta_ra_of_asc_node": 61.1879,
        "meta_arg_of_pericenter": 222.8476,
        "meta_mean_anomaly": 178.976,
        "meta_ephemeris_type": 0,
        "meta_classification_type": "U",
        "meta_norad_cat_id": 26766,
        "meta_element_set_no": 999,
        "meta_rev_at_epoch": 4370,
        "meta_bstar": 0,
        "meta_mean_motion_dot": -2.84e-06,
        "meta_mean_motion_ddot": 0,
        "tle_line1": "1 26766U 01019A   25343.64531916 -.00000284  00000+0  00000+0 0  9993",
        "tle_line2": "2 26766   8.6227  61.1879 0007832 222.8476 178.9760  0.99078983 43702"
      },
      "geometry": {
        "type": "Point",
        "coordinates": [
          -44.835898386269605,
          -8.306875101030666
        ]
      }
    },
    {
      "type": "Feature",
      "properties": {
        "norad_id": 26900,
        "name": "INTELSAT 902 (IS-902)",
        "group": "intelsat",
        "lat": 3.7461144216406743,
        "lon": 115.40185924861812,
        "alt_km": 35799.59535556925,
        "timestamp": "2025-12-10T05:46:13.464987+00:00",
        "meta_object_name": "INTELSAT 902 (IS-902)",
        "meta_object_id": "2001-039A",
        "meta_epoch": "2025-12-01T16:59:59.311968",
        "meta_mean_motion": 1.00270327,
        "meta_eccentricity": 0.00043097,
        "meta_inclination": 5.6187,
        "meta_ra_of_asc_node": 74.2002,
        "meta_arg_of_pericenter": 175.119,
        "meta_mean_anomaly": 26.3816,
        "meta_ephemeris_type": 0,
        "meta_classification_type": "U",
        "meta_norad_cat_id": 26900,
        "meta_element_set_no": 999,
        "meta_rev_at_epoch": 8871,
        "meta_bstar": 0,
        "meta_mean_motion_dot": -2.63e-06,
        "meta_mean_motion_ddot": 0,
        "tle_line1": "1 26900U 01039A   25335.70832537 -.00000263  00000+0  00000+0 0  9993",
        "tle_line2": "2 26900   5.6187  74.2002 0004309 175.1190  26.3816  1.00270327 88713"
      },
      "geometry": {
        "type": "Point",
        "coordinates": [
          115.40185924861812,
          3.7461144216406743
        ]
      }
    },
    {
      "type": "Feature",
      "properties": {
        "norad_id": 27380,
        "name": "INTELSAT 904 (IS-904)",
        "group": "intelsat",
        "lat": 5.7455336612940435,
        "lon": 134.1069752938764,
        "alt_km": 35790.709034673695,
        "timestamp": "2025-12-10T05:46:13.465004+00:00",
        "meta_object_name": "INTELSAT 904 (IS-904)",
        "meta_object_id": "2002-007A",
        "meta_epoch": "2025-12-09T11:42:40.881024",
        "meta_mean_motion": 1.00273083,
        "meta_eccentricity": 0.0001514,
        "meta_inclination": 6.4469,
        "meta_ra_of_asc_node": 71.4685,
        "meta_arg_of_pericenter": 215.3872,
        "meta_mean_anomaly": 295.774,
        "meta_ephemeris_type": 0,
        "meta_classification_type": "U",
        "meta_norad_cat_id": 27380,
        "meta_element_set_no": 999,
        "meta_rev_at_epoch": 4986,
        "meta_bstar": 0,
        "meta_mean_motion_dot": -2.24e-06,
        "meta_mean_motion_ddot": 0,
        "tle_line1": "1 27380U 02007A   25343.48797316 -.00000224  00000+0  00000+0 0  9998",
        "tle_line2": "2 27380   6.4469  71.4685 0001514 215.3872 295.7740  1.00273083 49866"
      },
      "geometry": {
        "type": "Point",
        "coordinates": [
          134.1069752938764,
          5.7455336612940435
        ]
      }
    },
    {
      "type": "Feature",
      "properties": {
        "norad_id": 27426,
        "name": "DIRECTV 5 (TEMPO 1)",
        "group": "intelsat",
        "lat": -1.626981000382788,
        "lon": 55.75009579444212,
        "alt_km": 35798.37998897912,
        "timestamp": "2025-12-10T05:46:13.465017+00:00",
        "meta_object_name": "DIRECTV 5 (TEMPO 1)",
        "meta_object_id": "2002-023A",
        "meta_epoch": "2025-12-09T12:28:39.654624",
        "meta_mean_motion": 1.00272054,
        "meta_eccentricity": 0.00039085,
        "meta_inclination": 4.3941,
        "meta_ra_of_asc_node": 77.689,
        "meta_arg_of_pericenter": 200.7432,
        "meta_mean_anomaly": 237.1271,
        "meta_ephemeris_type": 0,
        "meta_classification_type": "U",
        "meta_norad_cat_id": 27426,
        "meta_element_set_no": 999,
        "meta_rev_at_epoch": 8622,
        "meta_bstar": 0,
        "meta_mean_motion_dot": -5.5e-07,
        "meta_mean_motion_ddot": 0,
        "tle_line1": "1 27426U 02023A   25343.51990341 -.00000055  00000+0  00000+0 0  9996",
        "tle_line2": "2 27426   4.3941  77.6890 0003908 200.7432 237.1271  1.00272054 86221"
      },
      "geometry": {
        "type": "Point",
        "coordinates": [
          55.75009579444212,
          -1.626981000382788
        ]
      }
    },
    {
      "type": "Feature",
      "properties": {
        "norad_id": 27438,
        "name": "INTELSAT 905 (IS-905)",
        "group": "intelsat",
        "lat": -4.306699097893922,
        "lon": 28.770553739269204,
        "alt_km": 35793.47470101167,
        "timestamp": "2025-12-10T05:46:13.465029+00:00",
        "meta_object_name": "INTELSAT 905 (IS-905)",
        "meta_object_id": "2002-027A",
        "meta_epoch": "2025-12-09T11:59:00.274272",
        "meta_mean_motion": 1.00271823,
        "meta_eccentricity": 0.00028473,
        "meta_inclination": 6.2778,
        "meta_ra_of_asc_node": 72.0923,
        "meta_arg_of_pericenter": 191.5585,
        "meta_mean_anomaly": 217.3829,
        "meta_ephemeris_type": 0,
        "meta_classification_type": "U",
        "meta_norad_cat_id": 27438,
        "meta_element_set_no": 999,
        "meta_rev_at_epoch": 4946,
        "meta_bstar": 0,
        "meta_mean_motion_dot": 9.5e-07,
        "meta_mean_motion_ddot": 0,
        "tle_line1": "1 27438U 02027A   25343.49930873  .00000095  00000+0  00000+0 0  9997",
        "tle_line2": "2 27438   6.2778  72.0923 0002847 191.5585 217.3829  1.00271823 49463"
      },
      "geometry": {
        "type": "Point",
        "coordinates": [
          28.770553739269204,
          -4.306699097893922
        ]
      }
    },
    {
      "type": "Feature",
      "properties": {
        "norad_id": 27445,
        "name": "GALAXY 3C (G-3C)",
        "group": "intelsat",
        "lat": -0.5252556727137587,
        "lon": 70.91362920003468,
        "alt_km": 35787.76156040776,
        "timestamp": "2025-12-10T05:46:13.465041+00:00",
        "meta_object_name": "GALAXY 3C (G-3C)",
        "meta_object_id": "2002-030A",
        "meta_epoch": "2025-12-09T17:12:39.124800",
        "meta_mean_motion": 1.00271027,
        "meta_eccentricity": 0.0001125,
        "meta_inclination": 3.2569,
        "meta_ra_of_asc_node": 80.5344,
        "meta_arg_of_pericenter": 97.2007,
        "meta_mean_anomaly": 64.269,
        "meta_ephemeris_type": 0,
        "meta_classification_type": "U",
        "meta_norad_cat_id": 27445,
        "meta_element_set_no": 999,
        "meta_rev_at_epoch": 4459,
        "meta_bstar": 0,
        "meta_mean_motion_dot": -1.5e-06,
        "meta_mean_motion_ddot": 0,
        "tle_line1": "1 27445U 02030A   25343.71711950 -.00000150  00000+0  00000+0 0  9990",
        "tle_line2": "2 27445   3.2569  80.5344 0001125  97.2007  64.2690  1.00271027 44596"
      },
      "geometry": {
        "type": "Point",
        "coordinates": [
          70.91362920003468,
          -0.5252556727137587
        ]
      }
    },
    {
      "type": "Feature",
      "properties": {
        "norad_id": 27513,
        "name": "INTELSAT 906 (IS-906)",
        "group": "intelsat",
        "lat": 2.2634251880341307,
        "lon": -130.03307570214787,
        "alt_km": 35764.97765460352,
        "timestamp": "2025-12-10T05:46:13.465053+00:00",
        "meta_object_name": "INTELSAT 906 (IS-906)",
        "meta_object_id": "2002-041A",
        "meta_epoch": "2025-12-09T18:22:38.614080",
        "meta_mean_motion": 1.00271033,
        "meta_eccentricity": 0.0006114,
        "meta_inclination": 5.3212,
        "meta_ra_of_asc_node": 75.2669,
        "meta_arg_of_pericenter": 190.4296,
        "meta_mean_anomaly": 152.8499,
        "meta_ephemeris_type": 0,
        "meta_classification_type": "U",
        "meta_norad_cat_id": 27513,
        "meta_element_set_no": 999,
        "meta_rev_at_epoch": 8512,
        "meta_bstar": 0,
        "meta_mean_motion_dot": 1.5e-07,
        "meta_mean_motion_ddot": 0,
        "tle_line1": "1 27513U 02041A   25343.76572470  .00000015  00000+0  00000+0 0  9994",
        "tle_line2": "2 27513   5.3212  75.2669 0006114 190.4296 152.8499  1.00271033 85122"
      },
      "geometry": {
        "type": "Point",
        "coordinates": [
          -130.03307570214787,
          2.2634251880341307
        ]
      }
    }
  ]
}